     3.03           N: GNSS NAV DATA    M: Mixed            RINEX VERSION / TYPE
Emlid RGL 1.2.7                         20241128 124813 UTC PGM / RUN BY / DATE 
format: u-blox                                              COMMENT             
GPSA   3.3528E-08  2.9802E-08 -1.1921E-07  0.0000E+00       IONOSPHERIC CORR    
GPSB   1.5565E+05 -1.6384E+05 -6.5536E+04  1.3107E+05       IONOSPHERIC CORR    
GAL    0.0000E+00  0.0000E+00  0.0000E+00  0.0000E+00       IONOSPHERIC CORR    
QZSA   2.4214E-08 -1.4901E-08 -2.9802E-07 -2.9802E-07       IONOSPHERIC CORR    
QZSB   1.2698E+05 -2.4576E+05  2.6214E+05 -4.4564E+06       IONOSPHERIC CORR    
GPUT  1.8626451492E-09 7.105427358E-15-458752 2342          TIME SYSTEM CORR    
GAUT  0.0000000000E+00 0.000000000E+00      0    0          TIME SYSTEM CORR    
QZUT  1.0244548321E-08 0.000000000E+00   8192 2343          TIME SYSTEM CORR    
BDUT  0.0000000000E+00 0.000000000E+00      0    0          TIME SYSTEM CORR    
    18                                                      LEAP SECONDS        
                                                            END OF HEADER       
R 9 2024 11 28 12 45  0  .223130919039E-03  .181898940355E-11  .391260000000E+06
     -.101554101562E+04 -.172510910034E+01 -.372529029846E-08  .000000000000E+00
      .161357221680E+05  .207332229614E+01  .931322574615E-09 -.200000000000E+01
      .197168286133E+05 -.179465007782E+01  .000000000000E+00  .000000000000E+00
R16 2024 11 28 12 45  0  .311406329274E-04  .000000000000E+00  .391260000000E+06
     -.148490156250E+05 -.368053436279E+00 -.372529029846E-08  .000000000000E+00
      .200239677734E+05  .651467323303E+00  .186264514923E-08 -.100000000000E+01
      .532595898438E+04 -.348126888275E+01  .186264514923E-08  .000000000000E+00
R19 2024 11 28 12 45  0 -.300048850477E-03 -.909494701773E-12  .391260000000E+06
     -.470398535156E+04 -.508923530579E+00 -.372529029846E-08  .000000000000E+00
      .162591835938E+05 -.257023715973E+01  .931322574615E-09  .300000000000E+01
      .190943818359E+05  .206322479248E+01  .000000000000E+00  .000000000000E+00
R18 2024 11 28 12 45  0  .174081884325E-03  .181898940355E-11  .391260000000E+06
     -.104180654297E+05 -.889548301697E+00 -.279396772385E-08  .000000000000E+00
      .193128320312E+04 -.305034637451E+01  .186264514923E-08 -.300000000000E+01
      .232273393555E+05 -.141407012939E+00 -.931322574615E-09  .000000000000E+00
R15 2024 11 28 12 45  0  .736583024263E-04 -.909494701773E-12  .391260000000E+06
     -.189404052734E+05  .121881294250E+01 -.186264514923E-08  .000000000000E+00
      .119775761719E+05 -.114549350739E+01  .931322574615E-09  .000000000000E+00
     -.121655390625E+05 -.302234363556E+01  .279396772385E-08  .000000000000E+00
G14 2024 11 28 14  0  0  .549267977476E-03  .784439180279E-11  .000000000000E+00
      .121000000000E+03  .788750000000E+02  .453483175109E-08 -.878657420820E+00
      .399723649025E-05  .503467884846E-02  .101719051600E-04  .515370688629E+04
      .396000000000E+06  .158324837685E-06  .297331290020E+01 -.614672899246E-07
      .945003127105E+00  .179000000000E+03 -.286034383527E+01 -.798497546342E-08
     -.221080637467E-09  .100000000000E+01  .234200000000E+04  .000000000000E+00
      .200000000000E+01  .000000000000E+00 -.791624188423E-08  .889000000000E+03
      .391296000000E+06  .400000000000E+01
G 2 2024 11 28 14  0  0 -.304306857288E-03  .864019966684E-11  .000000000000E+00
      .360000000000E+02 -.940312500000E+02  .435839583039E-08  .290559617928E+01
     -.491552054882E-05  .164364790544E-01  .292062759399E-05  .515368425751E+04
      .396000000000E+06  .221654772758E-06 -.132181653060E+01  .150874257088E-06
      .966444734108E+00  .323375000000E+03 -.109122877895E+01 -.797104631179E-08
     -.230723896291E-09  .100000000000E+01  .234200000000E+04  .000000000000E+00
      .200000000000E+01  .000000000000E+00 -.176951289177E-07  .360000000000E+02
      .391296000000E+06  .400000000000E+01
G21 2024 11 28 14  0  0  .963401980698E-04 -.909494701773E-12  .000000000000E+00
      .790000000000E+02 -.902187500000E+02  .446518599292E-08  .258506519587E+01
     -.459700822830E-05  .256327713141E-01  .298395752907E-05  .515363415909E+04
      .396000000000E+06 -.372529029846E-08 -.133011404687E+01  .443309545517E-06
      .960684204513E+00  .320687500000E+03 -.486657770495E+00 -.802783439153E-08
     -.315013121561E-09  .100000000000E+01  .234200000000E+04  .000000000000E+00
      .200000000000E+01  .000000000000E+00 -.102445483208E-07  .790000000000E+02
      .391296000000E+06  .400000000000E+01
G 8 2024 11 28 14  0  0  .425354111940E-03  .966338120634E-11  .000000000000E+00
      .490000000000E+02  .880625000000E+02  .477698469487E-08  .277472998669E+01
      .447779893875E-05  .100463281851E-01  .279583036900E-05  .515371769142E+04
      .396000000000E+06 -.126659870148E-06 -.232224927116E+01 -.651925802231E-07
      .950443883288E+00  .321406250000E+03  .382090558623E+00 -.834034740895E-08
      .202151277555E-09  .100000000000E+01  .234200000000E+04  .000000000000E+00
      .200000000000E+01  .000000000000E+00  .465661287308E-08  .490000000000E+02
      .391296000000E+06  .400000000000E+01
G17 2024 11 28 13 59 44  .540973618627E-03 -.152340362547E-10  .000000000000E+00
      .700000000000E+01  .667187500000E+02  .434732394063E-08  .271667032447E+01
      .361911952496E-05  .135045647621E-01  .190362334251E-05  .515358633804E+04
      .395984000000E+06  .175088644028E-06 -.222461923145E+01  .298023223877E-07
      .966161384431E+00  .343437500000E+03 -.126410867093E+01 -.804212070089E-08
      .810748056625E-10  .100000000000E+01  .234200000000E+04  .000000000000E+00
      .200000000000E+01  .000000000000E+00 -.111758708954E-07  .700000000000E+01
      .391296000000E+06  .400000000000E+01
G 3 2024 11 28 14  0  0  .611648429185E-03  .966338120634E-11  .000000000000E+00
      .880000000000E+02 -.479062500000E+02  .374158442344E-08 -.578669379697E+00
     -.244751572609E-05  .564503530040E-02  .110566616058E-04  .515362453079E+04
      .396000000000E+06 -.558793544769E-08 -.183683543454E+00  .894069671631E-07
      .987505071013E+00  .187437500000E+03  .115508847979E+01 -.757995859284E-08
      .367515308488E-09  .100000000000E+01  .234200000000E+04  .000000000000E+00
      .200000000000E+01  .000000000000E+00  .139698386192E-08  .880000000000E+02
      .391296000000E+06  .400000000000E+01
G 7 2024 11 28 14  0  0 -.177607871592E-04  .181898940355E-11  .000000000000E+00
      .370000000000E+02 -.242187500000E+02  .515021452711E-08  .199347457907E-02
     -.113062560558E-05  .188716973644E-01  .749155879021E-05  .515358341599E+04
      .396000000000E+06 -.147148966789E-06  .190468688144E+01  .199303030968E-06
      .949960593672E+00  .230500000000E+03 -.209175017674E+01 -.859000066515E-08
     -.566809324169E-09  .100000000000E+01  .234200000000E+04  .000000000000E+00
      .200000000000E+01  .000000000000E+00 -.107102096081E-07  .370000000000E+02
      .391296000000E+06  .400000000000E+01
G22 2024 11 28 14  0  0 -.827237963676E-04 -.272848410532E-11  .000000000000E+00
      .390000000000E+02  .101875000000E+03  .409445626482E-08 -.303852560569E+01
      .526569783688E-05  .137146898778E-01  .101719051600E-04  .515368992615E+04
      .396000000000E+06  .707805156708E-07  .304155869130E+01  .122934579849E-06
      .960439423209E+00  .183937500000E+03 -.108439119055E+01 -.754031408435E-08
     -.151434879299E-09  .100000000000E+01  .234200000000E+04  .000000000000E+00
      .200000000000E+01  .000000000000E+00 -.111758708954E-07  .390000000000E+02
      .391296000000E+06  .400000000000E+01
J 4 2024 11 28 13  0  0  .215354375541E-04 -.113686837722E-12  .000000000000E+00
      .209000000000E+03  .137500000000E+03  .267582574460E-08  .688883070608E+00
      .549294054508E-05  .748208177974E-01  .105164945126E-04  .649355244255E+04
      .392400000000E+06 -.111199915409E-05  .429642849766E+00 -.974163413048E-06
      .633426523363E+00 -.175437500000E+03 -.155053235275E+01 -.279761653196E-08
      .120826461479E-08  .200000000000E+01  .234200000000E+04  .100000000000E+01
      .280000000000E+01  .100000000000E+01 -.279396772385E-08  .977000000000E+03
      .391296000000E+06  .100000000000E+01
J 3 2024 11 28 13  0  0 -.774115324020E-05 -.909494701773E-12  .000000000000E+00
      .209000000000E+03 -.799468750000E+03  .232831126922E-08  .242668293910E+01
     -.250376760960E-04  .753863152349E-01 -.120904296637E-04  .649380290985E+04
      .392400000000E+06  .912696123123E-06 -.126805507238E+01 -.312924385071E-06
      .705423379784E+00  .588031250000E+03 -.155315888172E+01 -.268618331889E-08
     -.971469037013E-10  .200000000000E+01  .234200000000E+04  .100000000000E+01
      .280000000000E+01  .100000000000E+01  .931322574615E-09  .977000000000E+03
      .391296000000E+06  .100000000000E+01
J 2 2024 11 28 13  0  0  .245869159698E-06 -.113686837722E-12  .000000000000E+00
      .209000000000E+03  .886812500000E+03  .135291349713E-08 -.205298474943E+01
      .269953161478E-04  .757091104751E-01  .107232481241E-04  .649310679245E+04
      .392400000000E+06 -.335276126862E-07 -.300197636761E+01 -.627711415291E-06
      .704395387250E+00 -.135125000000E+03 -.158032984500E+01 -.152792078689E-08
      .172150027883E-09  .200000000000E+01  .234200000000E+04  .100000000000E+01
      .280000000000E+01  .100000000000E+01  .186264514923E-08  .977000000000E+03
      .391296000000E+06  .100000000000E+01
R 2 2024 11 28 12 45  0 -.393716618419E-04  .000000000000E+00  .391260000000E+06
     -.111324877930E+05  .257621669769E+01 -.931322574615E-09  .000000000000E+00
     -.120195317383E+05  .729898452759E+00  .186264514923E-08 -.400000000000E+01
      .196211967773E+05  .190585899353E+01 -.931322574615E-09  .000000000000E+00
